namespace Service
{
    public class MetarService
    {
        public string GetLatestMetar()
        {
            return "LUKK 201530Z 29009KT 9999 FEW049 21/05 Q1014 R26/CLRD// NOSIG";
        }
    }
}